{
  "type": "Feature",
  "properties": {},
  "geometry": {
    "type": "Polygon",
    "coordinates": [[
    [-4.432983,43.401056],[-4.35228,42.9165],[-3.72024,42.73355],[-2.98841,42.66702],[-2.37301,42.56722],[-1.99046,42.68365],[-1.9073,42.50069],[-1.1921,42.58385],[-0.70976,42.56722],[0.25493,42.46743],[0.38799,42.60049],[1.16972,42.351],[1.96808,42.10151],[2.03461,42.2512],[2.63338,42.06825],[2.71655,42.36763],[2.66665,42.61712],[2.68328,43.14936],[2.79971,43.34895],[3.11573,43.54854],[3.34858,43.58181],[3.43175,43.66497],[3.53154,43.71487],[3.89746,43.71487],[4.01388,43.61507]],[[4.105317,43.551866],[4.047455,43.556138],[3.990896,43.550849],[3.952973,43.539944],[3.939301,43.532538],[3.739919,43.412828],[3.622162,43.374905],[3.589692,43.354885],[3.513357,43.281073],[3.492361,43.274319],[3.452403,43.288764],[3.428396,43.285468],[3.385427,43.283922],[3.317719,43.263088],[3.244314,43.219428],[3.22755,43.20425],[3.220958,43.195217],[3.207286,43.186632],[3.195893,43.176663],[3.178722,43.165229],[3.165945,43.152411],[3.15447,43.135281],[3.135997,43.121039],[3.114024,43.106309],[3.104177,43.087795],[3.096039,43.072577],[3.086029,43.054023],[3.070404,43.026923],[3.063243,43.008368],[3.056082,42.992703],[3.046153,42.964179],[3.038992,42.942776],[3.04184,42.932807],[3.054698,42.92711],[3.056082,42.907131],[3.047537,42.847235],[3.040457,42.790188],[3.038992,42.750271],[3.043305,42.724595],[3.037608,42.683214],[3.04184,42.629055],[3.046153,42.587673],[3.05185,42.554877],[3.066091,42.54206],[3.087494,42.534939],[3.114594,42.530626],[3.13738,42.524929],[3.145925,42.51496],[3.145925,42.503526],[3.143077,42.492133],[3.150238,42.482164],[3.160248,42.475043],[3.175873,42.456488],[3.18157,42.435085],[3.178722,42.417996],[3.170177,42.396593],[3.17449,42.380886],[3.17449,42.363796],[3.187348,42.349514],[3.204194,42.339586],[3.226492,42.342515],[3.249848,42.343207],[3.263031,42.32921],[3.269867,42.32921],[3.28061,42.336859],[3.293712,42.334988],[3.317719,42.322984],[3.294037,42.288031],[3.290375,42.278062],[3.287039,42.262926],[3.279389,42.255642],[3.270356,42.250108],[3.263031,42.239854],[3.247162,42.245714],[3.210134,42.239732],[3.178722,42.249701],[3.170177,42.25967],[3.151622,42.256822],[3.1303,42.239732],[3.118826,42.218329],[3.117442,42.182847],[3.116466,42.158433],[3.122488,42.140489],[3.138601,42.127631],[3.173106,42.112006],[3.192299,42.092921],[3.214496,42.068334],[3.213009,42.055986],[3.19986,42.04619],[3.195896,42.033118],[3.201589,42.017442],[3.20696,41.99669],[3.207856,41.990017],[3.211843,41.984605],[3.230561,41.973009],[3.235688,41.965522],[3.232188,41.946031],[3.207449,41.913926],[3.194916,41.888292],[3.178559,41.87523],[3.150165,41.845351],[3.116829,41.847569],[3.078631,41.826618],[3.069058,41.799076],[3.040341,41.78689],[2.950938,41.73428],[2.932991,41.712464],[2.90087,41.706706],[2.877254,41.701958],[2.851085,41.69717],[2.84018,41.694648],[2.83546,41.692572],[2.82016,41.681952],[2.817068,41.677639],[2.813162,41.670315],[2.803722,41.668647],[2.792003,41.669013],[2.778497,41.645582],[2.651866,41.605292],[2.449474,41.535224],[2.428966,41.518948],[2.371349,41.489203],[2.296723,41.465318],[2.267345,41.448635],[2.240408,41.420966],[2.191905,41.356757],[2.163259,41.326646],[2.130544,41.303656],[2.060313,41.274604],[2.019705,41.265855],[1.951345,41.260688],[1.884125,41.247504],[1.86378,41.238105],[1.854015,41.235989],[1.819835,41.237128],[1.62436,41.192165],[1.539236,41.187445],[1.288097,41.116278],[1.217784,41.104682],[1.210053,41.09988],[1.192475,41.075995],[1.18865,41.068305],[1.183604,41.062567],[1.172944,41.058661],[1.149099,41.069648],[1.141694,41.071723],[1.097667,41.070868],[1.055675,41.064887],[1.017426,41.051785],[0.990408,41.0397],[0.877452,40.954779],[0.822765,40.899604],[0.714203,40.815212],[0.694835,40.785997],[0.721528,40.774278],[0.750173,40.76557],[0.76238,40.766059],[0.767263,40.771023],[0.76352,40.778388],[0.750173,40.785997],[0.766938,40.78502],[0.780528,40.779486],[0.792003,40.771186],[0.815929,40.748399],[0.841807,40.732123],[0.854177,40.73314],[0.873709,40.727932],[0.872406,40.707099],[0.858084,40.686265],[0.848318,40.67536],[0.784028,40.660956],[0.756358,40.642239],[0.707042,40.583401],[0.677094,40.565172],[0.64796,40.556912],[0.615896,40.553453],[0.592459,40.582099],[0.640636,40.586859],[0.663178,40.574734],[0.696218,40.590359],[0.732677,40.633734],[0.712494,40.636176],[0.682221,40.634223],[0.599783,40.613715],[0.58017,40.603664],[0.563487,40.590033],[0.548513,40.572333],[0.517426,40.51435],[0.501313,40.484198],[0.483409,40.465033],[0.466156,40.45067],[0.452647,40.434068],[0.446137,40.408433],[0.420258,40.388251],[0.350597,40.284898],[0.338959,40.274359],[0.312104,40.257514],[0.298839,40.246772],[0.26474,40.209784],[0.205251,40.171536],[0.144542,40.078843],[0.117035,40.056342],[0.066173,40.031928],[0.040497,40.002875],[-0.002919,39.931952],[-0.028676,39.901801],[-0.091298,39.847927],[-0.194488,39.71544],[-0.199818,39.704942],[-0.202138,39.680854],[-0.208933,39.664089],[-0.219838,39.651394],[-0.243723,39.631049],[-0.257436,39.616238],[-0.269561,39.5987],[-0.274892,39.581814],[-0.281484,39.569363],[-0.312734,39.534003],[-0.323354,39.516221],[-0.330593,39.480407],[-0.327472,39.430675],[-0.320668,39.388129],[-0.30134,39.322008],[-0.238701,39.215446],[-0.227818,39.199336],[-0.215493,39.181839],[-0.227857,39.175245],[-0.242182,39.166275],[-0.236505,39.148053],[-0.226703,39.111782],[-0.210027,39.07869],[-0.18404,39.042259],[-0.15803,39.002143],[-0.120676,38.951117],[-0.105946,38.93651],[-0.068593,38.913398],[-0.030995,38.882758],[-0.009755,38.869696],[0.017426,38.864325],[0.06308,38.860785],[0.111013,38.849921],[0.153982,38.831],[0.185313,38.803534],[0.181,38.801907],[0.170909,38.796088],[0.182872,38.791815],[0.190766,38.785224],[0.217865,38.768134],[0.227712,38.770209],[0.23406,38.75788],[0.234548,38.742255],[0.227712,38.734565],[0.208995,38.73371],[0.192068,38.730414],[0.176768,38.724026],[0.162608,38.713528],[0.15089,38.69245],[0.148936,38.689927],[0.14503,38.686347],[0.125743,38.685492],[0.118582,38.682807],[0.105317,38.672553],[0.093679,38.667629],[0.083018,38.660956],[0.073131,38.645209],[0.080577,38.631008],[0.060435,38.634833],[0.046641,38.632229],[0.033376,38.627387],[0.015025,38.624742],[-0.01476,38.624416],[-0.028798,38.620673],[-0.042958,38.611721],[-0.054758,38.595282],[-0.055084,38.580756],[-0.053619,38.566962],[-0.060048,38.55272],[-0.075429,38.539944],[-0.090199,38.535346],[-0.131744,38.535346],[-0.176991,38.527248],[-0.202138,38.519599],[-0.233957,38.501654],[-0.329416,38.470038],[-0.344553,38.461615],[-0.350819,38.450019],[-0.358713,38.44595],[-0.395172,38.413764],[-0.406077,38.398871],[-0.410146,38.37934],[-0.409983,38.368964],[-0.413686,38.364814],[-0.445872,38.36343],[-0.460194,38.360053],[-0.47057,38.351874],[-0.474355,38.336737],[-0.509836,38.338365],[-0.518788,38.298651],[-0.504018,38.207221],[-0.515452,38.195502],[-0.532867,38.192165],[-0.568837,38.1942],[-0.591379,38.189643],[-0.609486,38.178046],[-0.623687,38.162421],[-0.634389,38.145819],[-0.640736,38.131659],[-0.645009,38.116034],[-0.64802,38.073798],[-0.652496,38.007758],[-0.65453,37.989325],[-0.663401,37.980292],[-0.689931,37.972154],[-0.708852,37.956285],[-0.718414,37.94302],[-0.758616,37.863349],[-0.760732,37.847073],[-0.760569,37.845852],[-0.756093,37.806057],[-0.760732,37.796129],[-0.787994,37.822821],[-0.812408,37.770087],[-0.825551,37.761379],[-0.847808,37.75609],[-0.856109,37.742499],[-0.85261,37.723782],[-0.819814,37.676703],[-0.809926,37.666897],[-0.777699,37.650092],[-0.754791,37.641303],[-0.734853,37.63935],[-0.726471,37.651516],[-0.707997,37.643012],[-0.701243,37.631334],[-0.705312,37.619534],[-0.719716,37.610541],[-0.727895,37.60342],[-0.736643,37.599433],[-0.745676,37.599433],[-0.754506,37.604315],[-0.764027,37.599595],[-0.791493,37.591457],[-0.807973,37.588446],[-0.836415,37.576402],[-0.873891,37.576402],[-0.886708,37.574286],[-0.900624,37.569037],[-0.92516,37.555894],[-0.933705,37.561021],[-0.9735,37.576402],[-1.006418,37.581448],[-1.069936,37.582587],[-1.087758,37.580878],[-1.103424,37.576402],[-1.114654,37.568671],[-1.119985,37.559027],[-1.116851,37.549384],[-1.105767,37.532135],[-1.137172,37.538001],[-1.167057,37.543755],[-1.173408,37.555076],[-1.178585,37.563883],[-1.199732,37.566565],[-1.228993,37.576077],[-1.242699,37.579203],[-1.257667,37.567013],[-1.261671,37.557661],[-1.289784,37.558417],[-1.323735,37.561991],[-1.353261,37.549913],[-1.369171,37.541368],[-1.413686,37.506537],[-1.430369,37.498114],[-1.450225,37.494696],[-1.455556,37.492703],[-1.46349,37.487982],[-1.470896,37.482245],[-1.47411,37.477607],[-1.476674,37.472724],[-1.487294,37.439765],[-1.488352,37.433214],[-1.496938,37.427802],[-1.502797,37.429267],[-1.508168,37.432685],[-1.515004,37.433214],[-1.523915,37.428656],[-1.543731,37.414984],[-1.552968,37.412177],[-1.567738,37.409939],[-1.618723,37.392279],[-1.641618,37.381036],[-1.645913,37.369247],[-1.652839,37.361259],[-1.670888,37.363308],[-1.680165,37.354438],[-1.68578,37.336982],[-1.698964,37.316433],[-1.728505,37.282416],[-1.787221,37.235216],[-1.812734,37.207058],[-1.830352,37.166368],[-1.837758,37.131619],[-1.849843,37.104438],[-1.855214,37.076606],[-1.884999,37.015489],[-1.906117,36.987616],[-1.906972,36.975287],[-1.904164,36.966376],[-1.900502,36.958767],[-1.898671,36.950059],[-1.900339,36.941189],[-1.905222,36.935981],[-1.912872,36.933539],[-1.935292,36.932196],[-1.941396,36.929877],[-1.953847,36.919949],[-1.988922,36.900499],[-2.002797,36.88703],[-2.013051,36.845771],[-2.02477,36.833767],[-2.040476,36.824327],[-2.056874,36.810085],[-2.06074,36.802436],[-2.065907,36.783555],[-2.071156,36.775336],[-2.080312,36.770616],[-2.09142,36.768256],[-2.100819,36.765163],[-2.111073,36.746121],[-2.126698,36.736396],[-2.146718,36.729926],[-2.166127,36.727566],[-2.203643,36.737128],[-2.231679,36.760077],[-2.256134,36.78738],[-2.282786,36.810085],[-2.318349,36.827908],[-2.339141,36.834255],[-2.361684,36.836778],[-2.380238,36.833767],[-2.412709,36.820014],[-2.433095,36.81627],[-2.442332,36.818305],[-2.46939,36.827745],[-2.481435,36.829942],[-2.56078,36.818793],[-2.576894,36.811306],[-2.59671,36.773098],[-2.617177,36.72842],[-2.64269,36.707017],[-2.647572,36.704169],[-2.658884,36.69481],[-2.684356,36.685981],[-2.718251,36.682034],[-2.736195,36.687405],[-2.756663,36.680365],[-2.782948,36.694607],[-2.802602,36.707302],[-2.820994,36.713894],[-2.829986,36.711737],[-2.83906,36.702419],[-2.848256,36.700222],[-2.858754,36.704942],[-2.886098,36.734402],[-2.913971,36.750312],[-2.933258,36.751654],[-2.987719,36.737109],[-3.076453,36.749756],[-3.156711,36.744526],[-3.227895,36.754828],[-3.329579,36.7449],[-3.34439,36.736925],[-3.358306,36.725938],[-3.378774,36.713894],[-3.415155,36.695516],[-3.477602,36.696096],[-3.515963,36.721047],[-3.53606,36.718406],[-3.549832,36.712373],[-3.586402,36.726579],[-3.6011,36.74255],[-3.63242,36.74128],[-3.665667,36.73937],[-3.679822,36.728808],[-3.731281,36.724097],[-3.803433,36.742474],[-3.838541,36.75197],[-3.889445,36.743388],[-3.960961,36.726793],[-4.056711,36.747992],[-4.079958,36.743564],[-4.110172,36.725733],[-4.197011,36.715399],[-4.224721,36.712388],[-4.403188,36.723863],[-4.420318,36.719875],[-4.433258,36.710679],[-4.461171,36.671454],[-4.466868,36.663031],[-4.480458,36.65119],[-4.491119,36.636664],[-4.495351,36.620551],[-4.524826,36.580715],[-4.5878,36.573818],[-4.615021,36.530556],[-4.64981,36.512112],[-4.65925,36.507636],[-4.680287,36.5008],[-4.722768,36.492987],[-4.764231,36.493964],[-4.88032,36.505683],[-4.902659,36.506537],[-4.91218,36.504014],[-4.923533,36.496853],[-4.994166,36.457094],[-5.062489,36.452216],[-5.108713,36.429023],[-5.121042,36.425564],[-5.157623,36.421942],[-5.173655,36.417426],[-5.186554,36.4112],[-5.199656,36.397162],[-5.227122,36.357937],[-5.227935,36.348538],[-5.2447,36.312079],[-5.253651,36.297105],[-5.258616,36.292548],[-5.26594,36.287095],[-5.274119,36.282538],[-5.290598,36.277411],[-5.289499,36.269843],[-5.285308,36.26081],[-5.29662,36.247382],[-5.329335,36.198147],[-5.334055,36.187812],[-5.339915,36.129828],[-5.33906,36.123847],[-5.34203,36.1105],[-5.35025,36.119289],[-5.366607,36.163153],[-5.382517,36.172309],[-5.406077,36.179226],[-5.425445,36.179755],[-5.4287,36.169989],[-5.437896,36.161485],[-5.442332,36.14879],[-5.441477,36.134548],[-5.434885,36.121527],[-5.43989,36.114203],[-5.437164,36.0987],[-5.43163,36.088935],[-5.4287,36.080797],[-5.431833,36.069566],[-5.438629,36.062812],[-5.445505,36.05744],[-5.466501,36.050727],[-5.566599,36.021633],[-5.581003,36.013983],[-5.611765,36.006456],[-5.629709,36.03677],[-5.671702,36.055976],[-5.689361,36.067125],[-5.713124,36.059963],[-5.733876,36.06566],[-5.753651,36.075588],[-5.796051,36.085517],[-5.811269,36.096829],[-5.832753,36.122382],[-5.897898,36.173896],[-5.917185,36.184068],[-5.938954,36.183824],[-5.983551,36.176988],[-6.036773,36.189521],[-6.062489,36.217231],[-6.082183,36.250678],[-6.104726,36.280707],[-6.159454,36.304307],[-6.165964,36.318712],[-6.168528,36.335313],[-6.175201,36.353583],[-6.184193,36.370714],[-6.218373,36.402452],[-6.242055,36.446479],[-6.25711,36.476426],[-6.279612,36.511298],[-6.301422,36.525987],[-6.310007,36.534125],[-6.297678,36.538764],[-6.289377,36.537299],[-6.257517,36.51378],[-6.248972,36.504747],[-6.254099,36.496283],[-6.246653,36.48664],[-6.231475,36.472683],[-6.219065,36.474962],[-6.211497,36.480536],[-6.200754,36.493842],[-6.179351,36.513536],[-6.186472,36.514228],[-6.206817,36.508897],[-6.224355,36.51085],[-6.232452,36.52619],[-6.226023,36.556667],[-6.234893,36.575751],[-6.283193,36.612372],[-6.293853,36.616848],[-6.361724,36.620551],[-6.379791,36.624254],[-6.394683,36.636908],[-6.406972,36.676703],[-6.417633,36.69595],[-6.431549,36.714586],[-6.437896,36.733303],[-6.433339,36.751207],[-6.41454,36.767646],[-6.396311,36.775092],[-6.358876,36.785834],[-6.345611,36.794989],[-6.335194,36.818264],[-6.343739,36.859931],[-6.338206,36.883734],[-6.304351,36.907213],[-6.223256,36.90233],[-6.194814,36.932115],[-6.214019,36.921698],[-6.239654,36.913398],[-6.265045,36.912909],[-6.283559,36.92593],[-6.325917,36.912665],[-6.344716,36.901272],[-6.352447,36.880276],[-6.346669,36.819892],[-6.352447,36.80858],[-6.38801,36.808173],[-6.416249,36.837795],[-6.448638,36.904202],[-6.471099,36.935614],[-6.499582,36.959662],[-6.744862,37.101386],[-6.771474,37.112779],[-6.794667,37.117743],[-6.811757,37.123725],[-6.853017,37.151109],[-6.87328,37.158677],[-6.892893,37.166571],[-6.910878,37.188951],[-6.917633,37.215074],[-6.910756,37.227607],[-6.898752,37.235785],[-6.864125,37.277533],[-6.852691,37.295233],[-6.903472,37.249579],[-6.931142,37.233873],[-6.962554,37.233832],[-6.962554,37.227607],[-6.940745,37.20067],[-6.930084,37.183173],[-6.928456,37.172349],[-6.94164,37.171088],[-7.029368,37.205512],[-7.061676,37.213935],[-7.10104,37.224251],[-7.127349,37.214748],[-7.098988,37.2119],[-7.085561,37.206488],[-7.32787,37.201565],[-7.343088,37.196234],[-7.362904,37.181708],[-7.381418,37.179918],[-7.398508,37.185452],[-7.414418,37.192816],[-7.411488,37.187934],[-7.409413,37.183743],[-7.406402,37.180487],[-7.400217,37.178534],[-7.400217,37.172349],[-7.407623,37.164862],[-7.424306,37.175035],[-7.445709,37.179633],[-7.468658,37.180325],[-7.490142,37.178534],[-7.51179,37.17178],[-7.552235,37.149237],[-7.569,37.144436],[-7.627349,37.113959],[-7.635162,37.105414],[-7.78661,37.022691],[-7.819569,36.998725],[-7.834055,36.998928],[-7.849599,37.004381],[-7.870717,37.00788],[-7.932444,37.008531],[-7.949534,37.014106],[-7.958119,37.002631],[-7.968821,37.00373],[-7.981597,37.010077],[-7.9912,37.014106],[-7.981353,37.001695],[-7.978098,36.995347],[-7.976796,36.986762],[-7.999257,37.013251],[-8.035268,37.037502],[-8.106557,37.069281],[-8.147475,37.076531],[-8.179152,37.088099],[-8.212896,37.08691],[-8.293202,37.077704],[-8.327382,37.087388],[-8.365384,37.097999],[-8.395215,37.087139],[-8.438834,37.082734],[-8.482257,37.095754],[-8.484252,37.094164],[-8.537465,37.117825],[-8.580149,37.123969],[-8.62678,37.121161],[-8.641591,37.117743],[-8.654652,37.110297],[-8.686269,37.082953],[-8.74767,37.082953],[-8.759674,37.080268],[-8.785553,37.067206],[-8.798573,37.062486],[-8.81371,37.061591],[-8.837215,37.056588],[-8.859158,37.040798],[-8.878919,37.047209],[-8.896962,37.032782],[-8.9051,37.027737],[-8.915598,37.024604],[-8.935618,37.010972],[-8.946034,37.00788],[-8.961171,37.012397],[-8.972076,37.021186],[-8.9829,37.026597],[-8.997874,37.02147],[-8.991038,37.049506],[-8.985585,37.063381],[-8.980784,37.069281],[-8.941793,37.118706],[-8.92691,37.146145],[-8.913564,37.169908],[-8.922719,37.199652],[-8.904652,37.213202],[-8.881365,37.23248],[-8.86709,37.276725],[-8.874919,37.294119],[-8.882768,37.309931],[-8.866676,37.335154],[-8.838657,37.360318],[-8.833363,37.384589],[-8.815989,37.417914],[-8.804064,37.462787],[-8.797861,37.4896],[-8.795497,37.535362],[-8.801305,37.559065],[-8.811144,37.574897],[-8.824371,37.587551],[-8.826527,37.600572],[-8.812856,37.64468],[-8.808258,37.672024],[-8.799306,37.697577],[-8.786206,37.702615],[-8.757639,37.706732],[-8.752187,37.73078],[-8.752187,37.734565],[-8.76183,37.727769],[-8.784056,37.723129],[-8.808705,37.722886],[-8.817006,37.740302],[-8.809582,37.791231],[-8.797182,37.844873],[-8.798956,37.878093],[-8.804815,37.901873],[-8.820669,37.927267],[-8.853871,37.932278],[-8.894846,37.952541],[-8.890045,37.960924],[-8.883168,37.964504],[-8.875396,37.967353],[-8.867502,37.973619],[-8.815683,38.062115],[-8.796993,38.133246],[-8.774396,38.186949],[-8.777952,38.240691],[-8.785466,38.303908],[-8.795071,38.359227],[-8.820941,38.398821],[-8.846791,38.420071],[-8.878285,38.449164],[-8.914662,38.472846],[-8.942616,38.481391],[-8.927317,38.493801],[-8.90453,38.486396],[-8.867502,38.460883],[-8.821848,38.448554],[-8.80016,38.439114],[-8.798573,38.426093],[-8.756988,38.427314],[-8.65689,38.405951],[-8.606801,38.418687],[-8.63683,38.420152],[-8.66275,38.424506],[-8.736155,38.45185],[-8.745025,38.460273],[-8.750803,38.473944],[-8.752512,38.487982],[-8.750885,38.500637],[-8.745758,38.510077],[-8.737172,38.514879],[-8.737172,38.522366],[-8.751454,38.526435],[-8.76122,38.538072],[-8.764231,38.552069],[-8.757639,38.5633],[-8.773346,38.565334],[-8.792958,38.533596],[-8.812856,38.528551],[-8.812856,38.522366],[-8.790639,38.519924],[-8.780263,38.505439],[-8.780019,38.489081],[-8.788401,38.481391],[-8.812327,38.482856],[-8.832265,38.487047],[-8.867502,38.501858],[-8.905832,38.512397],[-8.95489,38.505144],[-8.999765,38.464253],[-8.991864,38.459478],[-9.048595,38.440671],[-9.145657,38.431383],[-9.165909,38.425089],[-9.182141,38.415624],[-9.200357,38.412481],[-9.226186,38.418402],[-9.230621,38.418687],[-9.233998,38.424221],[-9.233754,38.431464],[-9.231068,38.43769],[-9.227203,38.440375],[-9.21996,38.449042],[-9.190027,38.472532],[-9.183868,38.504128],[-9.183793,38.551537],[-9.20807,38.597417],[-9.238464,38.635412],[-9.252675,38.665484],[-9.234395,38.673361],[-9.187681,38.67801],[-9.145042,38.681068],[-9.124135,38.670966],[-9.113922,38.658881],[-9.107737,38.658881],[-9.113922,38.679389],[-9.098866,38.685614],[-9.067291,38.692328],[-9.052398,38.693671],[-9.052398,38.699897],[-9.037434,38.713941],[-9.021168,38.72653],[-8.992709,38.743814],[-8.956858,38.768134],[-8.952952,38.77025],[-8.947133,38.774237],[-8.942616,38.77558],[-8.942616,38.781724],[-8.952626,38.794908],[-8.964263,38.814846],[-8.970286,38.835435],[-8.963124,38.850653],[-8.986318,38.849433],[-8.996816,38.865546],[-9.002594,38.889838],[-9.011545,38.913398],[-8.969106,38.983954],[-8.943227,39.015204],[-8.908437,39.036282],[-8.888417,39.040107],[-8.84553,39.042914],[-8.826527,39.049262],[-8.790354,39.070624],[-8.774648,39.083441],[-8.765126,39.097724],[-8.791737,39.082424],[-8.836415,39.056708],[-8.922719,39.049262],[-8.935862,39.040717],[-8.955068,39.012193],[-9.003529,38.95775],[-9.058909,38.871405],[-9.08967,38.843573],[-9.10025,38.830227],[-9.106557,38.813788],[-9.104217,38.794816],[-9.102257,38.761593],[-9.098248,38.737858],[-9.112503,38.714182],[-9.163287,38.701672],[-9.220171,38.693895],[-9.285209,38.698758],[-9.303485,38.687705],[-9.321777,38.670325],[-9.360585,38.689521],[-9.404775,38.704088],[-9.429189,38.707261],[-9.471669,38.70246],[-9.491689,38.707587],[-9.491282,38.727729],[-9.484731,38.744696],[-9.497467,38.788235],[-9.497467,38.80976],[-9.491933,38.819241],[-9.479888,38.830756],[-9.455496,38.850469],[-9.422725,38.931404],[-9.425364,38.991645],[-9.436635,39.029486],[-9.426647,39.051724],[-9.422549,39.078625],[-9.383696,39.134032],[-9.371418,39.16092],[-9.35086,39.197309],[-9.346781,39.235226],[-9.34059,39.26683],[-9.354075,39.31623],[-9.365834,39.336005],[-9.401763,39.36522],[-9.409291,39.37519],[-9.397817,39.377997],[-9.352922,39.367934],[-9.279245,39.405822],[-9.260803,39.418442],[-9.240315,39.419997],[-9.227895,39.408433],[-9.2176,39.406195],[-9.205922,39.415473],[-9.213531,39.428616],[-9.229888,39.440741],[-9.213649,39.461035],[-9.191085,39.481536],[-9.182873,39.492584],[-9.164413,39.502024],[-9.135694,39.51618],[-9.1213,39.535105],[-9.111009,39.550879],[-9.090434,39.579275],[-9.088341,39.596662],[-9.090343,39.615641],[-9.077947,39.642479],[-9.071692,39.680437],[-8.993031,39.843166],[-8.868153,40.124823],[-8.853261,40.139228],[-8.841624,40.125963],[-8.825063,40.120063],[-8.784983,40.11872],[-8.784983,40.126166],[-8.801096,40.137926],[-8.816151,40.146552],[-8.833608,40.151679],[-8.879384,40.156236],[-8.896474,40.16474],[-8.906606,40.179389],[-8.908437,40.20067],[-8.895741,40.228746],[-8.865387,40.275458],[-8.798573,40.474433],[-8.784855,40.536818],[-8.765788,40.582541],[-8.753,40.640815],[-8.750356,40.643948],[-8.744618,40.646918],[-8.743967,40.6258],[-8.744618,40.619045],[-8.72468,40.644517],[-8.710276,40.653469],[-8.696156,40.646918],[-8.690012,40.646918],[-8.690012,40.653144],[-8.692372,40.655707],[-8.696401,40.661322],[-8.698801,40.667955],[-8.696156,40.673651],[-8.686391,40.677924],[-8.680776,40.674994],[-8.676869,40.669664],[-8.671986,40.666815],[-8.662099,40.669867],[-8.653635,40.677191],[-8.641591,40.694159],[-8.65746,40.701402],[-8.666331,40.713202],[-8.663645,40.724066],[-8.644928,40.728909],[-8.621816,40.730658],[-8.603871,40.735785],[-8.588368,40.744208],[-8.572662,40.755561],[-8.589508,40.754706],[-8.614735,40.74494],[-8.635976,40.741604],[-8.639882,40.740058],[-8.645375,40.739732],[-8.668446,40.747463],[-8.675689,40.755561],[-8.683705,40.783108],[-8.645579,40.823676],[-8.655263,40.844916],[-8.656972,40.828559],[-8.663197,40.814927],[-8.670522,40.811184],[-8.675689,40.824449],[-8.689809,40.804104],[-8.700551,40.777981],[-8.707387,40.750312],[-8.709828,40.725165],[-8.714263,40.709052],[-8.725087,40.685981],[-8.738433,40.664496],[-8.750803,40.653144],[-8.6551,40.993801],[-8.655263,41.030504],[-8.667104,41.097561],[-8.666127,41.132758],[-8.648346,41.146633],[-8.648346,41.152777],[-8.68578,41.159491],[-8.70519,41.186916],[-8.718373,41.221503],[-8.737172,41.249661],[-8.732289,41.262926],[-8.734609,41.274075],[-8.740061,41.28498],[-8.744618,41.297431],[-8.744456,41.328111],[-8.749135,41.337795],[-8.756132,41.34054],[-8.760325,41.350898],[-8.764027,41.361314],[-8.778147,41.37934],[-8.783803,41.393866],[-8.783773,41.406109],[-8.785564,41.434878],[-8.774849,41.468338],[-8.78647,41.491067],[-8.78826,41.511798],[-8.792733,41.525838],[-8.79542,41.542553],[-8.808339,41.572943],[-8.812856,41.595404],[-8.819488,41.611884],[-8.820449,41.630097],[-8.828603,41.648157],[-8.830511,41.671586],[-8.827056,41.682807],[-8.804677,41.689276],[-8.743276,41.696967],[-8.725942,41.703111],[-8.710032,41.711859],[-8.696156,41.721991],[-8.806874,41.696967],[-8.829986,41.694648],[-8.842885,41.695787],[-8.861113,41.704368],[-8.880306,41.736862],[-8.880317,41.765533],[-8.872039,41.810569],[-8.878896,41.839016],[-8.874745,41.849555],[-8.867502,41.859117],[-8.79662,41.903306],[-8.762766,41.931952],[-8.750803,41.96898],[-8.761952,41.952582],[-8.777089,41.937161],[-8.7954,41.925686],[-8.815989,41.92121],[-8.832834,41.913967],[-8.848785,41.899482],[-8.864654,41.888902],[-8.881256,41.893297],[-8.878733,41.907131],[-8.89859,42.101752],[-8.895497,42.119086],[-8.884592,42.126044],[-8.84496,42.126614],[-8.826527,42.13052],[-8.819081,42.139716],[-8.82372,42.14761],[-8.842763,42.154446],[-8.846995,42.160834],[-8.84203,42.164293],[-8.815989,42.174506],[-8.813466,42.178697],[-8.811025,42.188137],[-8.805776,42.197496],[-8.795237,42.201728],[-8.790639,42.204535],[-8.771962,42.222235],[-8.719553,42.252346],[-8.706451,42.256415],[-8.701894,42.258531],[-8.669911,42.280911],[-8.652008,42.286322],[-8.631744,42.29682],[-8.625152,42.301947],[-8.621653,42.310207],[-8.621653,42.340806],[-8.622711,42.34748],[-8.626454,42.348334],[-8.634755,42.346381],[-8.649892,42.335598],[-8.660756,42.316799],[-8.674794,42.299018],[-8.699574,42.291164],[-8.719838,42.287584],[-8.773915,42.268988],[-8.784983,42.260077],[-8.795766,42.258246],[-8.848297,42.260972],[-8.867502,42.256415],[-8.863637,42.268988],[-8.853424,42.291083],[-8.853261,42.304836],[-8.846995,42.304836],[-8.832997,42.28913],[-8.827219,42.296698],[-8.826527,42.329047],[-8.828521,42.337226],[-8.830719,42.34162],[-8.82726,42.344143],[-8.812856,42.346381],[-8.776926,42.340155],[-8.771962,42.342719],[-8.764638,42.355699],[-8.726877,42.388739],[-8.709828,42.400377],[-8.676869,42.416449],[-8.662506,42.426907],[-8.655263,42.441352],[-8.664377,42.437974],[-8.672515,42.438422],[-8.682525,42.441352],[-8.691274,42.440619],[-8.694488,42.439643],[-8.696767,42.437974],[-8.718821,42.427965],[-8.743642,42.413235],[-8.757639,42.407213],[-8.779368,42.402899],[-8.811025,42.400702],[-8.843577,42.403713],[-8.867502,42.4147],[-8.875722,42.425971],[-8.880238,42.445014],[-8.88801,42.455634],[-8.90095,42.461005],[-8.935455,42.465399],[-8.942616,42.469306],[-8.935048,42.479071],[-8.916737,42.487616],[-8.895985,42.493883],[-8.881256,42.496568],[-8.869008,42.493394],[-8.860829,42.485012],[-8.861155,42.475572],[-8.874338,42.469306],[-8.865549,42.465033],[-8.851552,42.460761],[-8.836985,42.45893],[-8.826527,42.461859],[-8.822499,42.472357],[-8.825185,42.484117],[-8.825063,42.49494],[-8.812856,42.502753],[-8.825185,42.537421],[-8.826527,42.554633],[-8.822987,42.569525],[-8.813832,42.581448],[-8.801584,42.589301],[-8.788401,42.59219],[-8.775502,42.604722],[-8.738759,42.666083],[-8.730946,42.688422],[-8.737172,42.688422],[-8.744049,42.672431],[-8.753896,42.656887],[-8.767323,42.645168],[-8.784983,42.64057],[-8.803822,42.645941],[-8.815989,42.658515],[-8.826243,42.67414],[-8.839508,42.68244],[-8.854604,42.661566],[-8.857004,42.649115],[-8.846995,42.64057],[-8.868764,42.617499],[-8.880523,42.611802],[-8.894846,42.620103],[-8.889475,42.630601],[-8.903432,42.625474],[-8.936391,42.606431],[-8.922231,42.593695],[-8.93399,42.586819],[-8.969879,42.579169],[-8.972768,42.57392],[-8.980784,42.551215],[-8.989166,42.548896],[-8.99706,42.543402],[-9.011545,42.530707],[-9.026357,42.543118],[-9.028554,42.561469],[-9.033355,42.578111],[-9.055816,42.585395],[-9.070872,42.596137],[-9.065745,42.620307],[-9.051422,42.645941],[-9.038808,42.661078],[-9.039459,42.673041],[-9.036285,42.687934],[-9.030141,42.707709],[-9.018788,42.719753],[-9.014027,42.726833],[-9.006256,42.733832],[-8.994496,42.737006],[-8.992014,42.739081],[-8.963124,42.751288],[-8.937367,42.777777],[-8.922231,42.788113],[-8.898264,42.792304],[-8.891347,42.799343],[-8.884918,42.815009],[-8.887685,42.831122],[-8.908437,42.839464],[-8.912587,42.816596],[-8.92809,42.802517],[-8.951039,42.795111],[-8.977366,42.792304],[-9.028188,42.797878],[-9.04894,42.794745],[-9.045644,42.778022],[-9.068674,42.759711],[-9.081288,42.754828],[-9.10025,42.757514],[-9.113433,42.766059],[-9.120107,42.778998],[-9.125478,42.794989],[-9.134999,42.812771],[-9.122548,42.812608],[-9.113189,42.816352],[-9.106191,42.82331],[-9.10025,42.833279],[-9.108388,42.844835],[-9.122222,42.851752],[-9.141225,42.857449],[-9.142323,42.865302],[-9.147532,42.878607],[-9.148671,42.884467],[-9.146637,42.888373],[-9.137522,42.896064],[-9.134999,42.902167],[-9.133697,42.9112],[-9.134511,42.917548],[-9.141428,42.921413],[-9.158599,42.922634],[-9.167877,42.926825],[-9.183461,42.945258],[-9.195872,42.949327],[-9.195872,42.943142],[-9.190012,42.9324],[-9.19579,42.926581],[-9.20519,42.92475],[-9.210072,42.925727],[-9.214345,42.939032],[-9.224233,42.940212],[-9.235585,42.934882],[-9.244252,42.928778],[-9.251698,42.920233],[-9.261708,42.900173],[-9.268422,42.891303],[-9.273061,42.893337],[-9.282948,42.916612],[-9.291982,42.922634],[-9.291982,42.928778],[-9.28539,42.938341],[-9.26476,42.980333],[-9.263987,42.986518],[-9.26183,42.994493],[-9.258656,43.002387],[-9.254791,43.008002],[-9.250966,43.016791],[-9.257314,43.023261],[-9.272125,43.031277],[-9.27953,43.054999],[-9.271108,43.060492],[-9.257924,43.060899],[-9.251088,43.06977],[-9.245717,43.087999],[-9.233957,43.096503],[-9.22232,43.102729],[-9.2176,43.114447],[-9.202952,43.105048],[-9.189809,43.102322],[-9.176829,43.105577],[-9.162262,43.114447],[-9.15689,43.119737],[-9.154205,43.124701],[-9.150299,43.129584],[-9.141225,43.134874],[-9.133127,43.137966],[-9.125803,43.139594],[-9.107737,43.14114],[-9.107737,43.148505],[-9.124664,43.142524],[-9.147084,43.138699],[-9.163319,43.139757],[-9.162262,43.148505],[-9.194203,43.136542],[-9.208363,43.137885],[-9.2176,43.155341],[-9.170074,43.188747],[-9.137929,43.201524],[-9.100413,43.189521],[-9.08316,43.189765],[-9.065175,43.192328],[-9.052398,43.196357],[-9.039784,43.204535],[-9.026967,43.21015],[-9.016754,43.223863],[-9.011545,43.238756],[-9.004058,43.238756],[-8.985748,43.226874],[-8.958974,43.227484],[-8.932525,43.235297],[-8.915273,43.245022],[-8.936391,43.244086],[-8.94815,43.249945],[-8.963124,43.272284],[-8.967519,43.271959],[-8.979807,43.276923],[-8.988026,43.283026],[-8.980784,43.285956],[-8.970855,43.286566],[-8.930491,43.29975],[-8.88801,43.320746],[-8.856597,43.32689],[-8.84911,43.334052],[-8.841176,43.338935],[-8.829986,43.341213],[-8.817006,43.335842],[-8.785553,43.312445],[-8.768544,43.307074],[-8.750478,43.304918],[-8.711741,43.295559],[-8.693105,43.293402],[-8.665395,43.301174],[-8.630035,43.315863],[-8.592519,43.324205],[-8.55842,43.313218],[-8.505971,43.331529],[-8.497548,43.337795],[-8.494252,43.346625],[-8.486073,43.354315],[-8.475982,43.359687],[-8.455719,43.363349],[-8.451405,43.367377],[-8.448964,43.371975],[-8.443023,43.375312],[-8.388295,43.385891],[-8.384674,43.372707],[-8.375722,43.362982],[-8.353586,43.348619],[-8.34081,43.359931],[-8.33727,43.369045],[-8.339915,43.392727],[-8.330719,43.405666],[-8.310618,43.403144],[-8.281565,43.389594],[-8.267201,43.385932],[-8.260813,43.377021],[-8.257069,43.365668],[-8.250559,43.354885],[-8.227528,43.338121],[-8.217275,43.328315],[-8.210194,43.313218],[-8.202463,43.32925],[-8.202952,43.344672],[-8.210194,43.375312],[-8.209625,43.390692],[-8.204823,43.399726],[-8.193959,43.406806],[-8.175404,43.416327],[-8.195058,43.423245],[-8.213287,43.424954],[-8.247141,43.423082],[-8.26476,43.427314],[-8.288726,43.446234],[-8.305165,43.451077],[-8.286488,43.461982],[-8.185618,43.471503],[-8.178782,43.473293],[-8.171457,43.477973],[-8.166982,43.484565],[-8.168568,43.492011],[-8.173451,43.492743],[-8.196523,43.485175],[-8.257314,43.477729],[-8.253651,43.481269],[-8.250885,43.482856],[-8.243723,43.485175],[-8.247548,43.487738],[-8.257314,43.492011],[-8.269195,43.478949],[-8.288971,43.472968],[-8.333119,43.471503],[-8.325347,43.486762],[-8.321685,43.50788],[-8.31664,43.522895],[-8.305165,43.519355],[-8.292104,43.532945],[-8.30016,43.538235],[-8.308217,43.546332],[-8.313222,43.556342],[-8.312652,43.567125],[-8.308705,43.567125],[-8.291331,43.564846],[-8.284657,43.567125],[-8.260976,43.564521],[-8.232249,43.575507],[-8.086659,43.65648],[-8.082997,43.645453],[-8.074615,43.639635],[-8.063547,43.638861],[-8.051869,43.642808],[-8.062408,43.64232],[-8.065541,43.642808],[-8.065541,43.649075],[-8.061269,43.650946],[-8.056467,43.654242],[-8.051869,43.65648],[-8.071156,43.667873],[-8.073964,43.678534],[-8.069163,43.689276],[-8.065541,43.700873],[-8.059316,43.709418],[-8.044504,43.712104],[-8.010976,43.711737],[-7.981191,43.717841],[-7.952952,43.730129],[-7.928131,43.746772],[-7.908559,43.766343],[-7.880849,43.763251],[-7.869049,43.748847],[-7.86148,43.731187],[-7.846506,43.717963],[-7.846506,43.711737],[-7.852284,43.714179],[-7.862294,43.716254],[-7.867584,43.717963],[-7.874623,43.709418],[-7.879262,43.700507],[-7.879791,43.691962],[-7.873769,43.684475],[-7.884104,43.678616],[-7.887318,43.679674],[-7.894887,43.684475],[-7.901235,43.679755],[-7.903879,43.67829],[-7.908559,43.676988],[-7.908559,43.670152],[-7.858388,43.668199],[-7.849233,43.675605],[-7.867584,43.697455],[-7.856028,43.703437],[-7.843861,43.703803],[-7.819163,43.697455],[-7.821401,43.700751],[-7.823964,43.708075],[-7.826039,43.711737],[-7.812001,43.72309],[-7.793853,43.734117],[-7.773793,43.74258],[-7.734039,43.750067],[-7.712758,43.760688],[-7.695709,43.774888],[-7.688832,43.789984],[-7.685536,43.793443],[-7.678334,43.790473],[-7.671295,43.782864],[-7.668324,43.772528],[-7.672597,43.766669],[-7.695627,43.745917],[-7.696156,43.731513],[-7.691558,43.72724],[-7.68399,43.728705],[-7.67516,43.731635],[-7.673573,43.734361],[-7.674143,43.739203],[-7.672475,43.743842],[-7.664622,43.745917],[-7.65803,43.746527],[-7.641021,43.752672],[-7.637603,43.739081],[-7.613026,43.704291],[-7.615956,43.688544],[-7.607167,43.691107],[-7.594594,43.703681],[-7.586415,43.717963],[-7.57429,43.714545],[-7.565419,43.719794],[-7.555776,43.727607],[-7.541412,43.731635],[-7.502024,43.728339],[-7.490142,43.725328],[-7.407623,43.69123],[-7.367055,43.68008],[-7.304107,43.598578],[-7.256744,43.58161],[-7.260162,43.577501],[-7.262278,43.574286],[-7.265126,43.571479],[-7.271067,43.56863],[-7.271067,43.561143],[-7.257721,43.556667],[-7.249623,43.559394],[-7.242014,43.564805],[-7.230092,43.56863],[-7.215443,43.568671],[-7.194895,43.563503],[-7.156972,43.559272],[-7.095855,43.560981],[-7.079335,43.56863],[-7.061594,43.561591],[-7.044301,43.559394],[-7.032338,43.553005],[-7.030873,43.53323],[-7.03775,43.522244],[-7.048411,43.510443],[-7.053619,43.496527],[-7.044586,43.479193],[-7.043853,43.479193],[-7.038319,43.479193],[-7.032704,43.495469],[-7.02953,43.512152],[-7.023752,43.525824],[-7.010365,43.53323],[-7.001373,43.556667],[-6.943959,43.565985],[-6.845937,43.56863],[-6.830719,43.565131],[-6.770823,43.56863],[-6.729644,43.55976],[-6.703725,43.557563],[-6.648671,43.579047],[-6.597727,43.575222],[-6.54662,43.561835],[-6.510121,43.547471],[-6.499664,43.553087],[-6.488271,43.555121],[-6.462961,43.554958],[-6.464752,43.559678],[-6.467275,43.570868],[-6.469106,43.575385],[-6.455312,43.57335],[-6.431793,43.563422],[-6.417633,43.561143],[-6.366119,43.56863],[-6.314605,43.56863],[-6.300038,43.570624],[-6.273915,43.579617],[-6.249989,43.584052],[-6.243886,43.589301],[-6.236399,43.594306],[-6.222768,43.595893],[-6.190989,43.578559],[-6.178049,43.575385],[-6.100413,43.5692],[-6.08495,43.575385],[-6.069163,43.569688],[-6.054189,43.574571],[-6.039215,43.583116],[-6.023508,43.588446],[-5.907379,43.588446],[-5.90217,43.59752],[-5.908844,43.604926],[-5.913075,43.61286],[-5.900624,43.623236],[-5.902577,43.626492],[-5.905344,43.633816],[-5.907379,43.636827],[-5.875152,43.636786],[-5.863515,43.641425],[-5.859039,43.653632],[-5.852203,43.66295],[-5.836334,43.662218],[-5.803822,43.650499],[-5.782338,43.63703],[-5.727406,43.589545],[-5.708852,43.56863],[-5.701975,43.56863],[-5.696767,43.582831],[-5.689198,43.578559],[-5.67748,43.561143],[-5.6256,43.554958],[-5.424224,43.561143],[-5.39387,43.555243],[-5.390736,43.541327],[-5.403554,43.525417],[-5.420806,43.513373],[-5.41393,43.506537],[-5.403676,43.511094],[-5.382639,43.516384],[-5.372426,43.520209],[-5.365102,43.526719],[-5.362213,43.533393],[-5.356801,43.538601],[-5.341949,43.540635],[-5.299875,43.537665],[-5.284006,43.533474],[-5.211903,43.498358],[-5.177887,43.489366],[-5.091664,43.486274],[-5.067698,43.481391],[-5.057037,43.468614],[-5.045033,43.474311],[-4.975168,43.458767],[-4.967112,43.460883],[-4.952545,43.470079],[-4.941029,43.471747],[-4.930247,43.469509],[-4.907623,43.460639],[-4.836537,43.449774],[-4.754994,43.421658],[-4.734934,43.4171],[-4.512318,43.402737],[-4.508168,43.402452],[-4.481679,43.383612],[-4.460805,43.398708],[-4.432525,43.402615],[-4.432983,43.401056]
    ]]
  }
}
