{"type":"Feature","geometry":{"type":"Polygon","coordinates":[[[80.71884642202563,46.43604046828073],[82.20868349664521,51.32924897531792],[93.94115045927443,51.095929022398096],[105.30115815324875,51.21273678060715],[110.70143086835411,50.98293023313427],[130.25592915312674,50.1507960103906],[137.25694377302335,45.61244439836563],[136.4941053719356,44.966029726225756],[136.28505996177935,44.753043733794115],[136.17924025963092,44.54676779385271],[136.03397658775592,44.39840658779802],[135.69280532310748,44.22396811123552],[135.4147596688106,44.036830507475756],[135.15606215904498,43.72116430874529],[134.96242812584185,43.51504477139177],[134.56858352134967,43.21221502896013],[134.13894179771685,42.99295385952654],[133.31200698326373,42.77939184780779],[132.95279982994342,42.669540010649584],[132.8273573250606,42.86189993496599],[132.92358521282023,44.33844999781499],[131.77267819862973,45.14408490774835],[130.3915897816011,44.798812803491195],[128.5501385588963,43.64790578930068],[126.01814312767718,42.15172667085302],[125.09741751632478,42.957361580786376],[123.37105699503901,42.957361580786376],[116.23543350705785,41.57627316375776],[110.7110798389434,40.88572895524346],[107.48854019920998,41.115910358081564],[104.84145406657181,41.231001059500606],[104.15090985805752,40.310275448148204],[104.03581915663845,38.00846141976718],[102.19436793393365,38.468824225443385],[101.27364232258124,39.389549836795794],[100.81327951690504,40.310275448148204],[98.97182829420022,41.00081965666251],[96.32474216156204,40.65554755240535],[94.59838164027629,41.11591035808156],[92.06638620905717,43.302633685043524],[90.9596929884755,43.54918991631177],[91.33393557869015,45.92025067110863],[80.71884642202563,46.43604046828073]]]},"properties":{"name":"Uygur Kağanlığı","description":"Uygur Kağanlığı (Uygur Devleti) 744-840 yılları arasında Orta Asya'da hüküm süren, yerleşik hayata geçen ilk Türk devletidir. Karluk ve Basmillerle birleşerek II. Göktürk Kağanlığı'nı yıkmışlar, yerleşik kültür, ticaret, sanat ve din alanında büyük gelişmeler kaydetmişlerdir.","period":"744-840","founded":"744","dissolved":"840 (Kırgızlar tarafından yıkıldı)","capital":"Karabalgasun (Ordu-Balık)","rulers":"Kutluk Bilge Kül Kağan (kurucu), Moyen-Çur (en parlak dönem), Bögü Kağan (Manihaizm'i resmi din yaptı)","type":"Kağanlık / Yerleşik Türk Devleti","color":"#8B4513","_umap_options":{"color":"#8B4513","fillColor":"#8B4513","fillOpacity":0.3,"weight":3}},"id":"56bWO"}
